#dP2025 11 25  0  0  0.00000000     289   u+U IGb20 FIT  GFZ                    
## 2394 172800.00000000   300.00000000 61004 0.0000000000000                    
+  132   C01C02C04C05C06C07C08C09C10C11C12C13C14C16C19C20C21                    
+        C22C23C24C25C26C27C28C29C30C32C33C34C35C36C37C38C39                    
+        C40C41C42C43C44C45C47C48C49C50C59C60C62E02E03E04E05                    
+        E06E07E08E09E10E11E12E13E14E15E16E18E19E21E23E25E26                    
+        E27E29E30E31E33E34E36G01G02G03G04G05G06G07G08G09G10                    
+        G11G12G13G14G15G16G17G18G19G20G21G22G23G24G25G26G27                    
+        G28G29G30G31G32J02J03J04J07R02R03R04R05R07R08R09R11                    
+        R12R14R15R16R17R18R19R20R21R22R24R26R27 00 00 00 00                    
++        10 10 10 10 10 10 10 10  0  8  8 10  6 10  6  5  5                    
++         7  6  5  5  5  7  7  5  5  6  7  5  6  6  7 10 10                    
++        10  7  6  5  8  6  6  6  7  5 10 10 10  6  6 10  7                    
++         6  5  6  5  5  5  7  5  5  5  5  5  5  5  5  5  6                    
++         6  5  5  5  5  5  5  5  7  5  6  5  5  5  5  5  5                    
++         5  6  5  5  5  7  7  5  7  5  5  7  5  5  5  5  5                    
++         5  6  5  5  6 10  8 10 10  5  5  5  5  6  7  6  7                    
++         7  6  7  8  5  6  6  9  6  5  5  6  8  0  0  0  0                    
%c M  cc GPS ccc cccc cccc cccc cccc ccccc ccccc ccccc ccccc                    
%c cc cc ccc ccc cccc cccc cccc cccc ccccc ccccc ccccc ccccc                    
%f  1.2500000  1.025000000  0.00000000000  0.000000000000000                    
%f  0.0000000  0.000000000  0.00000000000  0.000000000000000                    
%i    0    0    0    0      0      0      0      0         0                    
%i    0    0    0    0      0      0      0      0         0                    
/* PCV:IGS20_2375 OL/AL:FES2014b NONE     YN CLK:CoN ORB:CoN                    
/*     GFZ Helmholtz Centre for Geosciences                                     
/*                                                                              
/*                                                                              
*  2025 11 25 22 25  0.00000000                                                 
PC01 -34347.620051  24477.918957   1099.150582   -244.172129                    
PC02   4362.625097  41892.173190   2195.929925    734.705051                    
PC04 -39567.226855  14393.945550   1722.311135    394.694549                    
PC05  21920.736676  36055.981668   1112.944150   -243.378536                    
PC06 -16986.105615  37632.438095  -9184.061650    151.607418                    
PC07  -3270.802104  33415.924679 -25173.458846    351.881875                    
PC08 -12277.593898  18691.248999  35703.728901   -736.473033                    
PC09 -11313.087237  36698.440081 -17619.140149     75.772077                    
PC10   5614.739928  36392.671984 -19561.608602   -314.061199                    
PC11   2877.495119  27397.845552   4552.376284    761.215237                    
PC12  -8717.489933  23055.956097 -13046.396037     66.626620                    
PC13  -1862.480881  21205.949365  36606.249116   -212.228779                    
PC14  10747.676167  18948.163705  17411.122013   -577.324379                    
PC16 -19162.887994  37165.492387  -6536.753272   -902.079233                    
PC19 -18955.959975 -17853.809817 -10049.712144   -949.544268                    
PC20  -2820.406578 -17660.408130 -21428.249162   -913.223480                    
PC21 -17160.221672   6512.517750  21033.432729   -917.503865                    
PC22 -25556.743437  -7927.890381   7945.451095    414.950438                    
PC23  23197.708955  -1304.775665 -15471.087216   -543.894658                    
PC24 -10532.160488  20290.536902 -16011.205327    121.300442                    
PC25  10367.999451  12709.635115 -22596.670495    922.780966                    
PC26 -22744.559652  16086.582127  -1296.086513   -557.295385                    
PC27  13429.449082 -14739.725202  19505.944552    560.787120                    
PC28  16208.590333   2452.867342  22593.042031    451.976292                    
PC29  -9777.976561 -23633.491558 -11164.134688    528.059124                    
PC30   1895.082856 -27293.400692   5440.658927    328.617522                    
PC32  17185.960404  -6580.127727 -20966.558708   -965.391669                    
PC33  18979.921682  17751.085080  10148.033674   -972.412055                    
PC34  -1759.630017  27368.266722  -5220.715417    828.256621                    
PC35 -16366.456624  -3588.685391 -22326.362135   -172.388383                    
PC36  -9857.393209 -13086.823468  22600.105290    309.964410                    
PC37  23670.355500 -14815.188097    -35.339491   -891.495649                    
PC38 -18798.928645  20136.047603  31957.814362    260.099636                    
PC39 -20839.906832  36820.834064    159.829481    -16.132411                    
PC40  -5714.362639  30716.469737 -28117.601463   -186.793878                    
PC41  25627.668461   8676.755904  -6739.834136   -955.343693                    
PC42    322.686052  16929.144027  22210.475623   -940.866621                    
PC43  10573.634023  22786.090810  12166.632479    125.928445                    
PC44 -12979.583366  15225.280203 -19479.062423    939.373534                    
PC45 -22776.214699    538.564981  16081.844533   -568.751273                    
PC47  -4465.787161 -27088.721405  -4959.322060   -348.655292                    
PC48 -10035.888099 -19053.773840 -17741.221574    714.110203                    
PC49  14160.191920  14438.789227  19230.232125   -403.566668                    
PC50  -9430.961548  12787.988364  22938.982297   -471.517319                    
PC59 -32274.351298  27063.371177   1832.560167     -0.073037                    
PC60   7272.299507  41493.516576   2140.000767     -0.404607                    
PC62 -39627.498067  14355.669419   -633.741410     -0.302837                    
PE02 -13803.182052 -15958.866308  20741.810183     -1.990933                    
PE03 -12418.224219 -26874.627496    155.586841     16.259241                    
PE04  19559.731656  13644.231808 -17533.326983      4.568941                    
PE05   1895.936995 -24134.794934 -17037.154199     -7.296772                    
PE06  18879.436198   3245.748625 -22587.135955   -198.306029                    
PE07 -15249.055932   7098.538463  24352.909390    -29.119062                    
PE08 -19413.101784 -14052.361038  17370.830859    -44.087029                    
PE09  15138.778503  -7014.244187 -24457.324529   -107.494681                    
PE10  20975.941505  -7598.686650  19463.170148   -753.316265                    
PE11  21408.840218 -17061.838898  11247.009735   2799.894439                    
PE12  17678.486380   1785.961515  23676.448551     -9.934537                    
PE13 -21451.204683  16695.318501 -11711.006687    -43.640737                    
PE14 -16912.492653 -27801.293366   -550.259627   4227.441165                    
PE15 -17254.509543  -2452.302305 -23911.364404   -216.618577                    
PE16  18598.961232 -11902.213159  19705.812534    -77.498317                    
PE18  13047.694115  19272.295375   2127.211525   2155.501580                    
PE19  11490.247959  27261.867103    999.258237   2483.222846                    
PE21  -8580.978264  15652.286095 -23615.796832   -704.257860                    
PE23  13958.230904  15834.622293 -20758.988973    -16.905928                    
PE25   9194.030421 -15497.816233  23484.642597     21.460035                    
PE26 -12742.343087  25717.964544   7249.454301    144.183970                    
PE27 -26200.755328   5999.850557 -12385.062089   -835.026938                    
PE29  -1848.037590  24297.255046  16804.070555   -154.013753                    
PE30 -28277.224609  -6783.641027   5467.471909   -450.951140                    
PE31  28118.751554   7058.465393  -5996.653490   -101.562721                    
PE33   2758.483675  19967.632239  21686.982038      2.898893                    
PE34  -2989.063153 -19812.490977 -21783.660869   -219.647010                    
PE36  13067.111134 -25622.704670  -6967.624505   -485.673224                    
PG01  14943.842011 -21817.761907   2148.117210    353.771521                    
PG02  16525.087525 -15560.104595  13782.491988    -19.428743                    
PG03  15863.907434 -12191.602427 -17603.592898    637.180117                    
PG04   7297.478790 -15132.923502 -20507.439708     26.962509                    
PG05 -25886.553908   4898.241411   3339.349832   -224.338283                    
PG06  -9864.121096 -11758.985204 -21581.138784   -578.937363                    
PG07   2936.827049 -23875.723832  11369.412911   -112.037672                    
PG08  14851.329427  -5571.629374  21184.282933    519.744265                    
PG09  -3651.288646 -22308.206971 -13979.981457    764.224871                    
PG10  16518.389756  11053.056839  18049.097333   -566.345422                    
PG11 -17226.330848   2314.339904 -20008.106084   -532.206164                    
PG12 -19293.000602  10426.840286 -15258.172368   -604.151829                    
PG13 -16636.272017  -3332.681952  20234.742301    693.416631                    
PG14 -13899.074479 -13029.746376  18693.967855    717.136105                    
PG15 -13493.645343   7868.288866  20944.555186    361.288302                    
PG16  26786.415752    694.794033    184.709689    154.345541                    
PG17 -13670.110361 -22576.590862   -835.609856     20.420915                    
PG18  -2622.172967  23167.782081  12519.681159   -493.325260                    
PG19 -16606.167211 -19387.298441  -8310.961817    677.031044                    
PG20 -25122.415004    123.451918  -8371.332803    362.175221                    
PG21 -25708.641017  -3221.112152  -5872.023381    336.935597                    
PG22 -18817.231435 -11256.962082  15099.602838    -75.327105                    
PG23   1476.283840  14601.570867  22205.230362    577.190425                    
PG24 -14548.729966  19852.137811   8954.803740   -224.343426                    
PG25  -7384.251565  15445.934013 -20625.699625    459.608720                    
PG26  23192.973661   5721.942636 -12249.627706   -285.137616                    
PG27  18941.849857   5816.940619  17551.122098    -41.536762                    
PG28   9374.230346  13881.832861 -20616.114608   -629.008182                    
PG29   -587.882186  21398.074675 -15662.938398   -419.680377                    
PG30  -4796.656305 -19427.078024  17515.871493     35.847916                    
PG31  15758.348574   2866.379172 -21509.881340   -181.100490                    
PG32  15818.909454  21369.207828  -1839.499618   -233.474892                    
PJ02 -29071.466252  15275.160747 -21708.859019     -0.272882                    
PJ03 -25702.051884  32841.602871  -1993.847632     -3.864984                    
PJ04 -26122.942529  25084.536375  27247.562490     -2.057636                    
PJ07 -25384.857017  33665.609962     30.353045     -0.011759                    
PR02 -20862.538634 -12953.882925   6796.993040     12.544632                    
PR03 -14409.161232    997.322644  21051.762110    133.979145                    
PR04   -460.488794  12681.944967  22159.242634    323.668879                    
PR05  13696.699710  18124.895351  11640.009252    159.614746                    
PR07  14724.093916   -575.033796 -20799.130715    115.348316                    
PR08    116.730520 -12884.043503 -21945.977214     -2.731066                    
PR09  19991.825020   -292.517287 -15768.741662    292.415399                    
PR11  14874.959032 -13893.141180  15368.227175      0.678865                    
PR12  -4232.186019 -10201.647821  23010.469768     62.060142                    
PR14 -23577.109369   9766.496729    -15.971277     30.483119                    
PR15 -13936.895999  13965.281245 -16160.368176     61.854912                    
PR16   4195.829443  10045.718596 -23063.784082     42.122719                    
PR17 -10936.347342  12738.697621 -19170.048197    247.467979                    
PR18  -6783.015146  23875.142676  -5960.325125    234.135038                    
PR19   1410.729382  22709.936541  11472.696625     22.138859                    
PR20   9107.399549   8455.517375  22307.329493    226.607640                    
PR21  11233.186045 -10009.348737  20615.254348   -257.799270                    
PR22   6629.668632 -24213.421410   4532.913744     97.459271                    
PR24  -9834.358785  -6952.945276 -22464.072662   -134.425500                    
PR26   2708.231645 -11229.491938 -22724.734927   -101.987229                    
PR27  21014.378931  13410.850376  -5477.262504     21.662941                    
EOF                                     
